LEMUR-2-FINNIAN         
1 66782U 25276DX  26193.02114277  .00001766  00000+0  14434-3 0  9994
2 66782  97.5365 263.2359 0007652  11.2352 348.9042 15.00597128 23722
LEMUR-2-STARLIGHT       
1 66783U 25276DY  26193.13254089  .00003887  00000+0  32198-3 0  9996
2 66783  97.5233 262.9182 0014819  56.3195 303.9440 14.99331400 33938
LEMUR-2-TARTIFLETTE     
1 66784U 25276DZ  26193.13091190  .00003551  00000+0  29474-3 0  9990
2 66784  97.5237 262.9245 0013851  64.3329 295.9324 14.99317762 33932
LEMUR-2-VUKASIN         
1 66785U 25276EA  26193.43716031  .00002702  00000+0  21885-3 0  9997
2 66785  97.5237 263.5744 0003470  63.1538 297.0041 15.00531099 33932
LEMUR-2-HOTSPUR-TOM     
1 66786U 25276EB  26192.72465754  .00003174  00000+0  26466-3 0  9996
2 66786  97.5223 262.5077 0013834  56.6609 303.5937 14.99219626 33806
LEMUR-2-MYRA            
1 66787U 25276EC  26192.73562243  .00003600  00000+0  28885-3 0  9990
2 66787  97.5222 262.8153 0018537  64.7520 295.5623 15.00564390 33896
LEMUR-2 FIKRETDENGIZ    
1 67363U 26004A   26193.54607806  .00002449  00000+0  26918-3 0  9991
2 67363  97.8023 191.7179 0010322  63.2919 296.9354 14.88505387 27050
TWILIGHT-1 OBJECT B     
1 67364U 26004B   26193.51468494  .00000957  00000+0  11076-3 0  9998
2 67364  97.8073 191.6894 0009909  53.6882 306.5248 14.87787971 27050
LEMUR-2-MARIO-SOUSA     
1 67365U 26004C   26193.59352511  .00002445  00000+0  26743-3 0  9990
2 67365  97.7995 191.7596 0009974  64.2837 295.9409 14.88713778 27070
LEMUR-2-SONNENBLUME     
1 67367U 26004E   26193.46145310  .00001580  00000+0  17610-3 0  9997
2 67367  97.7992 191.6035 0009542  66.1852 294.0364 14.88444773 27059
LEMUR-2-WOBLER          
1 67368U 26004F   26193.58561554  .00001854  00000+0  20439-3 0  9990
2 67368  97.8046 191.8741 0009638  57.3201 302.8945 14.88686453 27071
LEMUR-2-GRAM-E-SUE      
1 67370U 26004H   26193.57756068  .00001275  00000+0  14278-3 0  9999
2 67370  97.7985 191.7344 0008718  68.0241 292.1901 14.88582014 27075
LEMUR-2-KATIE           
1 67387U 26004AA  26193.53743512  .00002975  00000+0  31244-3 0  9993
2 67387  97.8041 192.2374 0003700  40.2246 319.9245 14.90236221 27088
LEMUR-2-HCS-BAZUS       
1 67388U 26004AB  26193.53581399  .00001566  00000+0  16706-3 0  9998
2 67388  97.8037 192.2146 0003217  39.3567 320.7884 14.90252616 27084
